NORAD_CAT_ID,OBJECT_NAME,OBJECT_TYPE,EPOCH,MEAN_MOTION,ECCENTRICITY,INCLINATION,RA_OF_ASC_NODE,ARG_OF_PERICENTER,MEAN_ANOMALY,BSTAR,MEAN_MOTION_DOT,MEAN_MOTION_DDOT,TLE_LINE0,TLE_LINE1,TLE_LINE2,SEMIMAJOR_AXIS,PERIOD,APOGEE,PERIGEE,DECAYED
55743.0,STARLINK-5602,PAYLOAD,2024-01-13 04:11:20,14.98332621,0.0002482,70.0004,67.711,254.0035,106.0851,1.2469e-05,5.6e-07,0.0,0 STARLINK-5602,1 55743U 23028C   24013.17454257  .00000056  00000-0  12469-4 0  9991,2 55743  70.0004  67.7110 0002482 254.0035 106.0851 14.98332621 48220,6950.185,96.107,573.775,570.325,0.0
55743.0,STARLINK-5602,PAYLOAD,2024-01-13 13:48:08,14.98333229,0.0002485,70.0003,66.701,254.4518,105.6367,1.9435e-05,1.39e-06,0.0,0 STARLINK-5602,1 55743U 23028C   24013.57510170  .00000139  00000-0  19435-4 0  9994,2 55743  70.0003  66.7010 0002485 254.4518 105.6367 14.98333229 48288,6950.183,96.107,573.775,570.321,0.0
55743.0,STARLINK-5602,PAYLOAD,2024-01-14 04:13:21,14.98329199,0.000249,69.9999,65.1856,260.0719,100.0159,7.5433e-05,8.07e-06,0.0,0 STARLINK-5602,1 55743U 23028C   24014.17594281  .00000807  00000-0  75433-4 0  9998,2 55743  69.9999  65.1856 0002490 260.0719 100.0159 14.98329199 48371,6950.195,96.107,573.791,570.33,0.0
55743.0,STARLINK-5602,PAYLOAD,2024-01-14 13:50:09,14.98332345,0.0002467,70.0,64.1752,259.6318,100.4563,0.00010716,1.186e-05,0.0,0 STARLINK-5602,1 55743U 23028C   24014.57650030  .00001186  00000-0  10716-3 0  9990,2 55743  70.0000  64.1752 0002467 259.6318 100.4563 14.98332345 48431,6950.186,96.107,573.765,570.336,0.0
55743.0,STARLINK-5602,PAYLOAD,2024-01-15 12:16:02,14.98333367,0.000249,70.0,61.8183,260.5919,99.4958,4.5324e-05,4.48e-06,0.0,0 STARLINK-5602,1 55743U 23028C   24015.51113943  .00000448  00000-0  45324-4 0  9996,2 55743  70.0000  61.8183 0002490 260.5919  99.4958 14.98333367 48572,6950.182,96.107,573.778,570.317,0.0
55743.0,STARLINK-5602,PAYLOAD,2024-01-16 02:41:15,14.98328414,0.0002451,70.0001,60.3032,259.2761,100.8122,-1.585e-05,-2.82e-06,0.0,0 STARLINK-5602,1 55743U 23028C   24016.11198369 -.00000282  00000-0 -15850-4 0  9997,2 55743  70.0001  60.3032 0002451 259.2761 100.8122 14.98328414 48664,6950.198,96.107,573.766,570.359,0.0
55743.0,STARLINK-5602,PAYLOAD,2024-01-16 12:18:04,14.98323777,0.0002532,70.0,59.293,259.8977,100.1896,-7.351e-05,-9.7e-06,0.0,0 STARLINK-5602,1 55743U 23028C   24016.51254883 -.00000970  00000-0 -73510-4 0  9996,2 55743  70.0000  59.2930 0002532 259.8977 100.1896 14.98323777 48727,6950.212,96.107,573.837,570.317,0.0
55743.0,STARLINK-5602,PAYLOAD,2024-01-16 21:54:51,14.98331179,0.0002715,69.9997,58.2819,262.2292,97.8559,1.2629e-05,5.8e-07,0.0,0 STARLINK-5602,1 55743U 23028C   24016.91310182  .00000058  00000-0  12629-4 0  9994,2 55743  69.9997  58.2819 0002715 262.2292  97.8559 14.98331179 48784,6950.189,96.107,573.941,570.167,0.0
55743.0,STARLINK-5602,PAYLOAD,2024-01-17 04:19:24,14.98331558,0.0002753,69.9995,57.6088,263.835,96.2495,1.597e-06,-7.4e-07,0.0,0 STARLINK-5602,1 55743U 23028C   24017.18014193 -.00000074  00000-0  15970-5 0  9999,2 55743  69.9995  57.6088 0002753 263.8350  96.2495 14.98331558 48825,6950.188,96.107,573.966,570.14,0.0
55743.0,STARLINK-5602,PAYLOAD,2024-01-17 12:20:04,14.98334728,0.0002709,69.9996,56.7677,262.7044,97.3807,4.2198e-05,4.11e-06,0.0,0 STARLINK-5602,1 55743U 23028C   24017.51393848  .00000411  00000-0  42198-4 0  9998,2 55743  69.9996  56.7677 0002709 262.7044  97.3807 14.98334728 48875,6950.178,96.107,573.926,570.16,0.0
55743.0,STARLINK-5602,PAYLOAD,2024-01-18 04:21:25,14.98324618,0.0002758,69.9995,55.0839,262.8497,97.2349,8.4899e-05,9.2e-06,0.0,0 STARLINK-5602,1 55743U 23028C   24018.18154377  .00000920  00000-0  84899-4 0  9993,2 55743  69.9995  55.0839 0002758 262.8497  97.2349 14.98324618 48971,6950.21,96.107,573.991,570.158,0.0
55743.0,STARLINK-5602,PAYLOAD,2024-01-18 12:22:05,14.98327029,0.0002733,69.9996,54.2424,262.4217,97.6631,0.00010482,1.158e-05,0.0,0 STARLINK-5602,1 55743U 23028C   24018.51534289  .00001158  00000-0  10482-3 0  9994,2 55743  69.9996  54.2424 0002733 262.4217  97.6631 14.98327029 49026,6950.202,96.107,573.967,570.168,0.0
55743.0,STARLINK-5602,PAYLOAD,2024-01-19 02:47:17,14.98333272,0.0002668,69.9997,52.7264,263.1031,96.9825,5.3494e-05,5.45e-06,0.0,0 STARLINK-5602,1 55743U 23028C   24019.11617995  .00000545  00000-0  53494-4 0  9997,2 55743  69.9997  52.7264 0002668 263.1031  96.9825 14.98333272 49115,6950.183,96.107,573.902,570.193,0.0
55743.0,STARLINK-5602,PAYLOAD,2024-01-19 12:24:06,14.98335231,0.0002682,69.9998,51.7166,265.334,94.7513,2.8297e-05,2.45e-06,0.0,0 STARLINK-5602,1 55743U 23028C   24019.51673871  .00000245  00000-0  28297-4 0  9996,2 55743  69.9998  51.7166 0002682 265.3340  94.7513 14.98335231 49172,6950.177,96.107,573.906,570.178,0.0
55743.0,STARLINK-5602,PAYLOAD,2024-01-20 02:49:18,14.98329562,0.0002643,70.0,50.2016,266.7295,93.3562,4.6399e-05,4.61e-06,0.0,0 STARLINK-5602,1 55743U 23028C   24020.11758084  .00000461  00000-0  46399-4 0  9997,2 55743  70.0000  50.2016 0002643 266.7295  93.3562 14.98329562 49267,6950.194,96.107,573.896,570.222,0.0
55743.0,STARLINK-5602,PAYLOAD,2024-01-20 12:26:07,14.98330584,0.0002661,70.0,49.1917,266.2486,93.8368,5.1835e-05,5.26e-06,0.0,0 STARLINK-5602,1 55743U 23028C   24020.51814034  .00000526  00000-0  51835-4 0  9992,2 55743  70.0000  49.1917 0002661 266.2486  93.8368 14.98330584 49323,6950.191,96.107,573.906,570.207,0.0
55743.0,STARLINK-5602,PAYLOAD,2024-01-21 04:27:28,14.98328299,0.0002548,70.0002,47.5089,259.3796,100.7077,5.4478e-06,-2.8e-07,0.0,0 STARLINK-5602,1 55743U 23028C   24021.18574258 -.00000028  00000-0  54478-5 0  9992,2 55743  70.0002  47.5089 0002548 259.3796 100.7077 14.98328299 49424,6950.198,96.107,573.834,570.292,0.0
55743.0,STARLINK-5602,PAYLOAD,2024-01-21 06:03:36,14.98328519,0.000255,70.0003,47.3405,259.2866,100.8006,8.7547e-06,1.2e-07,0.0,0 STARLINK-5602,1 55743U 23028C   24021.25250272  .00000012  00000-0  87547-5 0  9992,2 55743  70.0003  47.3405 0002550 259.2866 100.8006 14.98328519 49434,6950.197,96.107,573.835,570.29,0.0
55743.0,STARLINK-5602,PAYLOAD,2024-01-21 10:52:00,14.98326886,0.0002571,70.0003,46.8358,260.0606,100.0263,-1.0247e-05,-2.15e-06,0.0,0 STARLINK-5602,1 55743U 23028C   24021.45278462 -.00000215  00000-0 -10247-4 0  9994,2 55743  70.0003  46.8358 0002571 260.0606 100.0263 14.98326886 49465,6950.203,96.107,573.854,570.281,0.0
55743.0,STARLINK-5602,PAYLOAD,2024-01-22 04:29:28,14.98330408,0.0002699,70.0,44.9839,259.8196,100.2659,3.8956e-05,3.72e-06,0.0,0 STARLINK-5602,1 55743U 23028C   24022.18714058  .00000372  00000-0  38956-4 0  9990,2 55743  70.0000  44.9839 0002699 259.8196 100.2659 14.98330408 49574,6950.192,96.107,573.932,570.181,0.0
55743.0,STARLINK-5602,PAYLOAD,2024-01-22 06:05:37,14.98330814,0.0002694,70.0001,44.8156,259.6641,100.4214,4.5216e-05,4.47e-06,0.0,0 STARLINK-5602,1 55743U 23028C   24022.25390049  .00000447  00000-0  45216-4 0  9998,2 55743  70.0001  44.8156 0002694 259.6641 100.4214 14.98330814 49585,6950.19,96.107,573.928,570.183,0.0
55743.0,STARLINK-5602,PAYLOAD,2024-01-22 10:54:01,14.98330512,0.0002699,70.0001,44.3106,260.1356,99.9498,3.9283e-05,3.76e-06,0.0,0 STARLINK-5602,1 55743U 23028C   24022.45418089  .00000376  00000-0  39283-4 0  9993,2 55743  70.0001  44.3106 0002699 260.1356  99.9498 14.98330512 49615,6950.191,96.107,573.932,570.18,0.0
55743.0,STARLINK-5602,PAYLOAD,2024-01-23 06:07:37,14.98330558,0.0002796,70.0,42.2907,262.7854,97.2987,7.3024e-05,7.78e-06,0.0,0 STARLINK-5602,1 55743U 23028C   24023.25529990  .00000778  00000-0  73024-4 0  9993,2 55743  70.0000  42.2907 0002796 262.7854  97.2987 14.98330558 49736,6950.191,96.107,573.999,570.113,0.0
55743.0,STARLINK-5602,PAYLOAD,2024-01-23 10:56:01,14.98332369,0.0002765,70.0001,41.7859,262.1411,97.9434,9.1362e-05,9.97e-06,0.0,0 STARLINK-5602,1 55743U 23028C   24023.45557813  .00000997  00000-0  91362-4 0  9998,2 55743  70.0001  41.7859 0002765 262.1411  97.9434 14.98332369 49765,6950.186,96.107,573.972,570.129,0.0
55743.0,STARLINK-5602,PAYLOAD,2024-01-24 10:58:03,14.98329053,0.0002722,70.0003,39.2617,261.3675,98.7175,4.1697e-06,-4.3e-07,0.0,0 STARLINK-5602,1 55743U 23028C   24024.45698207 -.00000043  00000-0  41697-5 0  9992,2 55743  70.0003  39.2617 0002722 261.3675  98.7175 14.98329053 49911,6950.196,96.107,573.953,570.169,0.0
55743.0,STARLINK-5602,PAYLOAD,2024-01-25 11:00:03,14.98334327,0.000279,70.0002,36.7364,263.7518,96.3323,2.4506e-05,1.99e-06,0.0,0 STARLINK-5602,1 55743U 23028C   24025.45837698  .00000199  00000-0  24506-4 0  9992,2 55743  70.0002  36.7364 0002790 263.7518  96.3323 14.98334327 50065,6950.18,96.107,573.984,570.105,0.0
55743.0,STARLINK-5602,PAYLOAD,2024-01-26 09:25:56,14.98330674,0.0002772,70.0002,34.379,269.4456,90.6385,6.6744e-05,7.03e-06,0.0,0 STARLINK-5602,1 55743U 23028C   24026.39301772  .00000703  00000-0  66744-4 0  9996,2 55743  70.0002  34.3790 0002772 269.4456  90.6385 14.98330674 50208,6950.191,96.107,573.982,570.129,0.0
55743.0,STARLINK-5602,PAYLOAD,2024-01-27 03:03:25,14.98329086,0.0002725,70.0003,32.5273,268.8579,91.2268,-5.7882e-06,-1.62e-06,0.0,0 STARLINK-5602,1 55743U 23028C   24027.12738053 -.00000162  00000-0 -57882-5 0  9999,2 55743  70.0003  32.5273 0002725 268.8579  91.2268 14.98329086 50316,6950.196,96.107,573.955,570.167,0.0
55743.0,STARLINK-5602,PAYLOAD,2024-01-27 11:04:06,14.98327219,0.0002768,70.0003,31.6855,268.1032,91.981,-2.762e-05,-4.22e-06,0.0,0 STARLINK-5602,1 55743U 23028C   24027.46118279 -.00000422  00000-0 -27620-4 0  9993,2 55743  70.0003  31.6855 0002768 268.1032  91.9810 14.98327219 50367,6950.201,96.107,573.99,570.143,0.0
55743.0,STARLINK-5602,PAYLOAD,2024-01-28 04:41:34,14.98330389,0.0002943,70.0,29.8333,270.9538,89.1284,1.6749e-05,1.07e-06,0.0,0 STARLINK-5602,1 55743U 23028C   24028.19553950  .00000107  00000-0  16749-4 0  9991,2 55743  70.0000  29.8333 0002943 270.9538  89.1284 14.98330389 50479,6950.192,96.107,574.102,570.011,0.0
